[{"OBJECT_NAME":"CELESTIS-17 & SHERPA-FX1","OBJECT_ID":"2021-006CB","EPOCH":"2026-03-09T15:26:05.078112","MEAN_MOTION":15.30994801,"ECCENTRICITY":0.000663,"INCLINATION":97.2397,"RA_OF_ASC_NODE":112.1052,"ARG_OF_PERICENTER":178.1385,"MEAN_ANOMALY":181.9882,"EPHEMERIS_TYPE":0,"CLASSIFICATION_TYPE":"U","NORAD_CAT_ID":47486,"ELEMENT_SET_NO":999,"REV_AT_EPOCH":28406,"BSTAR":0.00024301,"MEAN_MOTION_DOT":7.207e-5,"MEAN_MOTION_DDOT":0},{"OBJECT_NAME":"STARLINK-35527","OBJECT_ID":"2025-236G","EPOCH":"2026-03-09T09:11:10.680000","MEAN_MOTION":15.30209333,"ECCENTRICITY":9.908e-5,"INCLINATION":53.1581,"RA_OF_ASC_NODE":105.5807,"ARG_OF_PERICENTER":91.5245,"MEAN_ANOMALY":268.5869,"EPHEMERIS_TYPE":0,"CLASSIFICATION_TYPE":"U","NORAD_CAT_ID":66092,"ELEMENT_SET_NO":999,"REV_AT_EPOCH":2289,"BSTAR":0.00067298973,"MEAN_MOTION_DOT":0.00019631,"MEAN_MOTION_DDOT":0}]
